[{"OBJECT_NAME":"STARLINK-2095","OBJECT_ID":"2021-012BM","EPOCH":"2026-03-10T00:00:02.999808","MEAN_MOTION":15.74200805,"ECCENTRICITY":0.00059989,"INCLINATION":53.0265,"RA_OF_ASC_NODE":345.7098,"ARG_OF_PERICENTER":141.0946,"MEAN_ANOMALY":123.1256,"EPHEMERIS_TYPE":0,"CLASSIFICATION_TYPE":"U","NORAD_CAT_ID":47679,"ELEMENT_SET_NO":999,"REV_AT_EPOCH":596,"BSTAR":0.0014953733,"MEAN_MOTION_DOT":0.00224612,"MEAN_MOTION_DDOT":0},{"OBJECT_NAME":"STARLINK-36621","OBJECT_ID":"2026-016A","EPOCH":"2026-03-09T17:26:26.846304","MEAN_MOTION":15.75208519,"ECCENTRICITY":0.0001712,"INCLINATION":97.2841,"RA_OF_ASC_NODE":129.1307,"ARG_OF_PERICENTER":43.6098,"MEAN_ANOMALY":316.5303,"EPHEMERIS_TYPE":0,"CLASSIFICATION_TYPE":"U","NORAD_CAT_ID":67561,"ELEMENT_SET_NO":999,"REV_AT_EPOCH":680,"BSTAR":0.0015681349,"MEAN_MOTION_DOT":0.00240674,"MEAN_MOTION_DDOT":0}]
